FLOCK 4Q-25             
1 58303U 23174AZ  24303.66271386  .00037499  00000+0  14719-2 0  9992
2 58303  97.4405  16.9918 0010220 107.4204 252.8153 15.25574647 54176
FLOCK 4Q-29             
1 58304U 23174BA  24304.15656989  .00036553  00000+0  14557-2 0  9994
2 58304  97.4493  17.8266 0011307 111.3806 248.8640 15.25085454 54246
FLOCK 4Q-22             
1 58306U 23174BC  24303.46316011  .00032671  00000+0  12725-2 0  9990
2 58306  97.4410  16.8370 0010252 114.3558 245.8751 15.25864381 54140
FLOCK 4Q-23             
1 58307U 23174BD  24303.66853018  .00035713  00000+0  14108-2 0  9993
2 58307  97.4491  17.3774 0011847 111.7129 248.5371 15.25355020 54176
FLOCK 4Q-33             
1 58308U 23174BE  24304.19772208  .00037128  00000+0  14653-2 0  9991
2 58308  97.4426  17.7451 0011339 109.0361 251.2107 15.25384204 54269
FLOCK 4Q-35             
1 58309U 23174BF  24304.16716335  .00037963  00000+0  14895-2 0  9993
2 58309  97.4468  17.8617 0011740 116.1654 244.0793 15.25570577 54251
FLOCK 4Q-32             
1 58310U 23174BG  24304.20370999  .00100203  00000+0  26688-2 0  9993
2 58310  97.4458  20.2810 0008481 101.6800 258.5397 15.37763887 54414
FLOCK 4Q-14             
1 58311U 23174BH  24304.18390070  .00033131  00000+0  13433-2 0  9992
2 58311  97.4407  17.3995 0010305 106.8093 253.4276 15.24515421 54245
FLOCK 4Q-20             
1 58313U 23174BK  24303.87482199  .00038948  00000+0  14913-2 0  9998
2 58313  97.4476  17.8157 0011877 111.1818 249.0690 15.26376096 54221
FLOCK 4Q-6              
1 58315U 23174BM  24303.17091914  .00028397  00000+0  11369-2 0  9993
2 58315  97.4403  16.4561 0010346 110.4600 249.7750 15.24972200 54094
FLOCK 4Q-34             
1 58316U 23174BN  24303.17032056  .00036272  00000+0  14266-2 0  9996
2 58316  97.4438  16.7076 0011592 112.6340 247.6126 15.25501628 54105
FLOCK 4Q-7              
1 58318U 23174BQ  24303.93890302  .00035192  00000+0  14045-2 0  9993
2 58318  97.4485  17.6005 0011828 110.0738 250.1774 15.25016423 54210
FLOCK 4Q-15             
1 58319U 23174BR  24304.15653954  .00038948  00000+0  15034-2 0  9990
2 58319  97.4473  18.0444 0011576 105.2059 255.0460 15.26111102 54264
FLOCK 4Q-2              
1 58320U 23174BS  24304.15623068  .00032825  00000+0  13306-2 0  9993
2 58320  97.4428  17.5164 0011317 107.5722 252.6753 15.24514285 54247
FLOCK 4Q-9              
1 58322U 23174BU  24303.66795660  .00024495  00000+0  99448-3 0  9994
2 58322  97.4447  17.1652 0011577 109.1276 251.1216 15.24521819 54179
FLOCK 4Q-10             
1 58324U 23174BW  24303.93937893  .00034081  00000+0  13511-2 0  9990
2 58324  97.4449  17.5862 0011317 106.3392 253.9091 15.25253707 54226
FLOCK 4Q-4              
1 58327U 23174BZ  24304.15514007  .00033072  00000+0  13535-2 0  9991
2 58327  97.4421  17.3251 0010346 127.4986 232.7193 15.24200973 54238
FLOCK 4Q-13             
1 58328U 23174CA  24303.94482012  .00036258  00000+0  14534-2 0  9997
2 58328  97.4506  17.4682 0011283 126.5963 233.6314 15.24868640 54201
FLOCK 4Q-21             
1 58329U 23174CB  24303.78766979  .00037325  00000+0  14530-2 0  9999
2 58329  97.4485  17.5015 0010592 123.8598 236.3649 15.25848441 54192
FLOCK 4BE-18            
1 60480U 24149N   24304.15983503  .00031920  00000+0  14764-2 0  9993
2 60480  97.4341  18.5293 0005550 199.0460 161.0568 15.20070365 11288
FLOCK 4BE-7             
1 60481U 24149P   24303.96058195  .00028126  00000+0  13027-2 0  9997
2 60481  97.4376  18.3688 0004482 196.3280 163.7811 15.20054449 11258
FLOCK 4BE-16            
1 60483U 24149R   24304.15430678  .00031818  00000+0  14633-2 0  9997
2 60483  97.4357  18.5529 0003669 191.7664 168.3486 15.20275650 11287
FLOCK 4BE-26            
1 60484U 24149S   24303.95463296  .00027751  00000+0  12811-2 0  9994
2 60484  97.4331  18.3281 0004648 197.3752 162.7325 15.20170982 11250
FLOCK 4BE-36            
1 60486U 24149U   24303.95314000  .00030950  00000+0  14206-2 0  9999
2 60486  97.4340  18.3386 0005334 209.5362 150.5572 15.20342561 11257
FLOCK 4BE-25            
1 60487U 24149V   24303.95244818  .00027595  00000+0  12742-2 0  9993
2 60487  97.4389  18.3930 0003519 192.1513 167.9638 15.20167381 11254
FLOCK 4BE-31            
1 60488U 24149W   24304.14410748  .00031421  00000+0  14350-2 0  9993
2 60488  97.4392  18.5951 0003792 200.8174 159.2907 15.20517535 11283
FLOCK 4BE-20            
1 60489U 24149X   24303.95049711  .00025964  00000+0  12000-2 0  9995
2 60489  97.4318  18.3229 0005137 202.3880 157.7132 15.20142473 11259
FLOCK 4BE-23            
1 60490U 24149Y   24303.95685743  .00025951  00000+0  12042-2 0  9990
2 60490  97.4382  18.3806 0004811 201.8741 158.2289 15.20006278 11252
FLOCK 4BE-15            
1 60491U 24149Z   24303.95048794  .00029561  00000+0  13575-2 0  9993
2 60491  97.4319  18.3202 0004533 207.6811 152.4183 15.20339088 11253
FLOCK 4BE-17            
1 60492U 24149AA  24304.15150181  .00030721  00000+0  14183-2 0  9997
2 60492  97.4392  18.5898 0004138 202.4012 157.7043 15.20148330 11289
FLOCK 4BE-22            
1 60494U 24149AC  24304.21094451  .00031006  00000+0  14204-2 0  9994
2 60494  97.4334  18.5987 0005435 214.8310 145.2571 15.20408399 11298
FLOCK 4BE-34            
1 60495U 24149AD  24303.94876072  .00020955  00000+0  97047-3 0  9999
2 60495  97.4380  18.3901 0004497 201.8217 158.2827 15.20120870 11252
FLOCK 4BE-32            
1 60497U 24149AF  24303.93627776  .00030402  00000+0  13847-2 0  9998
2 60497  97.4320  18.3400 0004849 211.8071 148.2872 15.20614148 11257
FLOCK 4BE-30            
1 60499U 24149AH  24303.93880575  .00028451  00000+0  12975-2 0  9990
2 60499  97.4391  18.4152 0003520 212.8318 147.2699 15.20589356 10631
FLOCK 4BE-11            
1 60501U 24149AK  24303.67542805  .00026246  00000+0  12004-2 0  9999
2 60501  97.4320  18.0789 0005455 222.2590 137.8226 15.20499851 11211
FLOCK 4BE-33            
1 60502U 24149AL  24304.07056104  .00025551  00000+0  11732-2 0  9992
2 60502  97.4332  18.4809 0005228 224.5227 135.5589 15.20372421 11278
FLOCK 4BE-10            
1 60503U 24149AM  24303.93818675  .00025967  00000+0  11905-2 0  9999
2 60503  97.4387  18.4106 0003708 216.1073 143.9912 15.20426665 11257
FLOCK 4BE-24            
1 60505U 24149AP  24304.18630516  .00030441  00000+0  13742-2 0  9999
2 60505  97.4318  18.6174 0005374 230.0437 130.0327 15.20918477 11298
TANAGER-1               
1 60507U 24149AR  24301.46671714  .00056306  00000+0  23369-2 0  9998
2 60507  97.4366  16.0200 0002668 273.2063  86.8869 15.23637515 10889
FLOCK 4BE-29            
1 60509U 24149AT  24304.18107586  .00031591  00000+0  14190-2 0  9994
2 60509  97.4389  18.7040 0003392 239.6042 120.4859 15.21089209 11294
FLOCK 4BE-2             
1 60511U 24149AV  24303.97466972  .00032224  00000+0  14388-2 0  9993
2 60511  97.4398  18.5248 0003600 239.4492 120.6388 15.21289479 11261
FLOCK 4BE-13            
1 60512U 24149AW  24304.18242265  .00031766  00000+0  14292-2 0  9999
2 60512  97.4308  18.6175 0005351 234.2551 125.8187 15.21023855 11298
FLOCK 4BE-27            
1 60513U 24149AX  24303.66268256  .00020082  00000+0  92180-3 0  9992
2 60513  97.4397  18.1725 0004282 246.6953 113.3832 15.20437110 11211
FLOCK 4BE-9             
1 60514U 24149AY  24303.78232819  .00026246  00000+0  11841-2 0  9994
2 60514  97.4374  18.3029 0003690 244.7706 115.3147 15.20976904 11235
FLOCK 4BE-8             
1 60515U 24149AZ  24303.71905994  .00023744  00000+0  10762-2 0  9990
2 60515  97.4328  18.1797 0005303 242.7896 117.2799 15.20832123 11223
FLOCK 4BE-6             
1 60516U 24149BA  24304.11244614  .00027787  00000+0  12582-2 0  9994
2 60516  97.4384  18.6303 0004154 244.6432 115.4374 15.20838810 11288
FLOCK 4BE-14            
1 60517U 24149BB  24303.96597994  .00028861  00000+0  12888-2 0  9992
2 60517  97.4328  18.4661 0005818 241.0058 119.0595 15.21300323 11262
FLOCK 4BE-1             
1 60518U 24149BC  24304.16487343  .00031326  00000+0  13958-2 0  9991
2 60518  97.4374  18.7049 0005023 248.4121 111.6580 15.21361135 11290
FLOCK 4BE-28            
1 60519U 24149BD  24303.96863749  .00032261  00000+0  14362-2 0  9996
2 60519  97.4339  18.4741 0006090 248.3923 111.6665 15.21380086 11269
FLOCK 4BE-35            
1 60558U 24149CU  24304.18387835  .00028041  00000+0  12711-2 0  9998
2 60558  97.4374  18.6880 0003239 233.8515 126.2421 15.20800957 11293
FLOCK 4BE-5             
1 60559U 24149CV  24303.19272644  .00022684  00000+0  10294-2 0  9991
2 60559  97.4396  17.7297 0003605 240.7649 119.3226 15.20807260 11146
FLOCK 4BE-12            
1 60560U 24149CW  24303.78140613  .00027695  00000+0  12440-2 0  9990
2 60560  97.4327  18.2525 0004995 247.9605 112.1101 15.21111752 11234
FLOCK 4BE-3             
1 60561U 24149CX  24303.78493695  .00026265  00000+0  11850-2 0  9998
2 60561  97.4316  18.2381 0005884 238.5115 121.5546 15.20966941 11237
FLOCK 4BE-19            
1 60563U 24149CZ  24304.16612763  .00032301  00000+0  14373-2 0  9993
2 60563  97.4333  18.6635 0005529 247.2506 112.8146 15.21398493 11298
